[{"OBJECT_NAME":"PROBA-2","OBJECT_ID":"2009-059B","EPOCH":"2026-03-09T22:14:08.403360","MEAN_MOTION":14.54791624,"ECCENTRICITY":0.00123546,"INCLINATION":98.2432,"RA_OF_ASC_NODE":253.6562,"ARG_OF_PERICENTER":223.465,"MEAN_ANOMALY":136.5574,"EPHEMERIS_TYPE":0,"CLASSIFICATION_TYPE":"U","NORAD_CAT_ID":36037,"ELEMENT_SET_NO":999,"REV_AT_EPOCH":86709,"BSTAR":9.6228268e-5,"MEAN_MOTION_DOT":3.67e-6,"MEAN_MOTION_DDOT":0},{"OBJECT_NAME":"FENGYUN 1C DEB","OBJECT_ID":"1999-025YL","EPOCH":"2026-03-09T12:06:28.290240","MEAN_MOTION":14.46764846,"ECCENTRICITY":0.00362954,"INCLINATION":98.6187,"RA_OF_ASC_NODE":159.2355,"ARG_OF_PERICENTER":282.4787,"MEAN_ANOMALY":200.0042,"EPHEMERIS_TYPE":0,"CLASSIFICATION_TYPE":"U","NORAD_CAT_ID":30275,"ELEMENT_SET_NO":999,"REV_AT_EPOCH":99338,"BSTAR":0.0021673282,"MEAN_MOTION_DOT":7.869e-5,"MEAN_MOTION_DDOT":0}]
